0 IRIDIUM 144
1 43249U 18030A   24003.33304317  .00000337  00000-0  11337-3 0  9998
2 43249  86.3973 304.8142 0002104  83.0487 277.0948 14.34219619301730
0 IRIDIUM 149
1 43250U 18030B   24003.82776954  .00000027  00000-0  26513-5 0  9994
2 43250  86.3975 304.5836 0001961  79.8020 280.3397 14.34218511301822
0 IRIDIUM 157
1 43251U 18030C   24003.84679826  .00000356  00000-0  12011-3 0  9998
2 43251  86.3974 304.6096 0002283  89.5928 270.5529 14.34217654301807
0 IRIDIUM 140
1 43252U 18030D   24003.37744640  .00000118  00000-0  35249-4 0  9999
2 43252  86.3974 304.8206 0002188  74.7122 285.4315 14.34216030301792
0 IRIDIUM 145
1 43253U 18030E   24003.29498890  .00000332  00000-0  11166-3 0  9993
2 43253  86.3974 304.8292 0001931  80.5634 279.5780 14.34220150301716
0 IRIDIUM 146
1 43254U 18030F   24003.83410860  .00000342  00000-0  11505-3 0  9993
2 43254  86.3974 304.6194 0001938  83.0575 277.0841 14.34216976301807
0 IRIDIUM 148
1 43255U 18030G   24003.38378924  .00000342  00000-0  11512-3 0  9996
2 43255  86.3975 304.8372 0001792  88.3311 271.8090 14.34218568301776
0 IRIDIUM 142
1 43256U 18030H   24003.84045611  .00000261  00000-0  86021-4 0  9990
2 43256  86.3973 304.5675 0001965  83.0418 277.1002 14.34216883301804
